{"fetched_at":"2026-06-14T17:24:05Z","count":17113,"tles":[{"name":"POLYITAN-1","line1":"1 40042U 14033AJ  26164.59326024  .00018854  00000+0  59022-3 0  9997","line2":"2 40042  98.0941 190.5143 0008378 151.4693 208.7007 15.33140093653042","category":"Other"},{"name":"MAKERSAT 0","line1":"1 43016U 17073D   26164.65297003  .00018894  00000+0  51523-3 0  9991","line2":"2 43016  97.4638  47.1449 0105291 285.8058  73.1594 15.31989436465920","category":"Other"},{"name":"BISONSAT","line1":"1 40974U 15058L   26164.33938476  .00010852  00000+0  52741-3 0  9992","line2":"2 40974  64.7583 186.0846 0078679  48.8392 311.9484 15.16110491115032","category":"Other"},{"name":"BRITE-PL2 (HEWELIUSZ)","line1":"1 40119U 14049B   26164.55708537  .00001494  00000+0  14333-3 0  9996","line2":"2 40119  97.9094 276.5291 0015179 119.2476 241.0263 14.94582898640905","category":"Other"},{"name":"CANX-5","line1":"1 40056U 14034D   26164.63773711  .00000919  00000+0  12511-3 0  9992","line2":"2 40056  98.3129  39.8639 0013423  28.1378 332.0556 14.81276153634813","category":"Other"},{"name":"UKUBE-1","line1":"1 40074U 14037F   26164.53211357  .00008861  00000+0  49903-3 0  9996","line2":"2 40074  98.4231 167.4199 0002456 135.5420 224.6006 15.13501714648004","category":"Other"},{"name":"TIGRISAT","line1":"1 40043U 14033AK  26164.41027608  .00002006  00000+0  23534-3 0  9996","line2":"2 40043  97.7823 314.5086 0050698  87.2860 273.4156 14.85149002645068","category":"Other"},{"name":"AEROCUBE 6A","line1":"1 40045U 14033AM  26164.41674811  .00006229  00000+0  52321-3 0  9999","line2":"2 40045  97.7227 331.4054 0039188  30.7558 329.5949 14.98071450646057","category":"Other"},{"name":"CORVUS BC1","line1":"1 42847U 17042Y   26164.40335986  .00003899  00000+0  26789-3 0  9999","line2":"2 42847  97.4084 326.7121 0013172 100.7740 259.4971 15.06441369486525","category":"Other"},{"name":"AEROCUBE 5C","line1":"1 40965U 15058B   26164.61700384  .00002422  00000+0  22037-3 0  9997","line2":"2 40965  64.7679 273.6963 0130601  64.6688 296.7884 14.91438982365120","category":"Other"},{"name":"PROPCUBE 3","line1":"1 40973U 15058K   26164.59525944  .00002929  00000+0  24845-3 0  9991","line2":"2 40973  64.7689 263.7580 0123860  61.3273 300.0228 14.94239787114261","category":"Other"},{"name":"SINOD-D 1","line1":"1 40968U 15058E   26164.60190841  .00003423  00000+0  27876-3 0  9998","line2":"2 40968  64.7760 270.1398 0118807  54.5085 306.7044 14.95885116116124","category":"Other"},{"name":"RAVAN","line1":"1 41849U 16067B   26164.24579279  .00050837  00000+0  77475-3 0  9995","line2":"2 41849  97.9900  53.3642 0004962  43.7720 316.3925 15.54321353527082","category":"Other"},{"name":"AEROCUBE 8D","line1":"1 41852U 16067E   26164.61091216  .00007493  00000+0  30933-3 0  9998","line2":"2 41852  98.0691  34.5106 0004502 131.9611 228.2008 15.24352008525528","category":"Other"},{"name":"PROPCUBE 1 (FLORA)","line1":"1 40976U 15058N   26164.63664960  .00002432  00000+0  23442-3 0  9992","line2":"2 40976  64.7755 306.2398 0130577  62.3131 299.1159 14.89207367115732","category":"Other"},{"name":"SNAP-3 EDDIE","line1":"1 40972U 15058J   26164.19150682  .00129003  00000+0  15078-2 0  9999","line2":"2 40972  64.7418 108.4877 0028908  19.1787 341.0440 15.60431383118403","category":"Other"},{"name":"SNAP-3 JIMI","line1":"1 40975U 15058M   26164.52787880  .00004581  00000+0  31893-3 0  9992","line2":"2 40975  64.7647 231.3502 0105965  56.8578 304.2652 15.02269914113671","category":"Other"},{"name":"AEROCUBE 8C","line1":"1 41853U 16067F   26164.57085218  .00008216  00000+0  33622-3 0  9991","line2":"2 41853  98.0563  31.7001 0006721  78.9064 281.2927 15.24599209525511","category":"Other"},{"name":"AEROCUBE 6B","line1":"1 40046U 14033AN  26164.42275109  .00005856  00000+0  47409-3 0  9994","line2":"2 40046  97.7232 331.1933 0038635  22.2270 338.0617 14.99536094646193","category":"Other"},{"name":"CELTEE 1","line1":"1 41850U 16067C   26164.58561585  .00005691  00000+0  27051-3 0  9998","line2":"2 41850  98.0678  30.9074 0000728 119.4992 240.6314 15.19649941525330","category":"Other"}]}